{
  "distance": 2.186034843575,
  "zip": "89101",
  "closed": 0,
  "lat": 36.170603,
  "lng": -115.100648,
  "course_name": "Desert Pines Golf Club",
  "driving_miles": ""
},
{
  "distance": 2.50971842061,
  "zip": "89109",
  "closed": 0,
  "lat": 36.1341878,
  "lng": -115.1477534,
  "course_name": "Las Vegas Country Club",
  "driving_miles": ""
},
{
  "distance": 2.878699352881,
  "zip": "89169",
  "closed": 0,
  "lat": 36.1298536,
  "lng": -115.1257827,
  "course_name": "Las Vegas National Golf Course",
  "driving_miles": ""
},
{
  "distance": 3.181885032901,
  "zip": "89030",
  "closed": 0,
  "lat": 36.2159,
  "lng": -115.136257,
  "course_name": "North Las Vegas Golf Course",
  "driving_miles": ""
},
{
  "distance": 3.25385746699,
  "zip": "89109",
  "closed": 0,
  "lat": 36.1283802,
  "lng": -115.1672493,
  "course_name": "Desert Inn Golf Club",
  "driving_miles": ""
},
{
  "distance": 3.338492486027,
  "zip": "89107",
  "closed": 0,
  "lat": 36.181091,
  "lng": -115.1980689,
  "course_name": "Las Vegas Golf Club",
  "driving_miles": ""
},
{
  "distance": 4.990761651071,
  "zip": "89142",
  "closed": 0,
  "lat": 36.1433024,
  "lng": -115.0566797,
  "course_name": "Desert Rose Golf Course",
  "driving_miles": ""
},
{
  "distance": 5.123351743065,
  "zip": "89031",
  "closed": 0,
  "lat": 36.243657,
  "lng": -115.149721,
  "course_name": "Craig Ranch Golf Course",
  "driving_miles": ""
},
{
  "distance": 5.696696780116,
  "zip": "89122",
  "closed": 0,
  "lat": 36.133462,
  "lng": -115.048265,
  "course_name": "Royal Links Golf Club",
  "driving_miles": ""
},
{
  "distance": 5.802935431982,
  "zip": "89191",
  "closed": 0,
  "lat": 36.2157847,
  "lng": -115.0526393,
  "course_name": "Eagle / Falcon Course at Sunrise Vista Golf Course",
  "driving_miles": ""
},
{
  "distance": 6.066101663451,
  "zip": "89122",
  "closed": 0,
  "lat": 36.1150283,
  "lng": -115.0550102,
  "course_name": "Stallion Mountain Country Club",
  "driving_miles": ""
},
{
  "distance": 6.193137084302,
  "zip": "89031",
  "closed": 0,
  "lat": 36.2576406,
  "lng": -115.1169035,
  "course_name": "Shadow Creek Golf Course",
  "driving_miles": ""
},
{
  "distance": 6.270788111723,
  "zip": "89119",
  "closed": 0,
  "lat": 36.083191,
  "lng": -115.172829,
  "course_name": "Bali Hai Golf Club",
  "driving_miles": ""
},
{
  "distance": 6.444303456227,
  "zip": "89031",
  "closed": 0,
  "lat": 36.2586007,
  "lng": -115.1039578,
  "course_name": "Shadow Creek Golf Course",
  "driving_miles": ""
},
{
  "distance": 7.125126866713,
  "zip": "89130",
  "closed": 0,
  "lat": 36.25097,
  "lng": -115.218873,
  "course_name": "Los Prados Golf Course",
  "driving_miles": ""
},
{
  "distance": 7.352653442375,
  "zip": "89119",
  "closed": 0,
  "lat": 36.0668659,
  "lng": -115.1725472,
  "course_name": "Callaway Golf Center",
  "driving_miles": ""
},
{
  "distance": 7.9643846561,
  "zip": "89145",
  "closed": 0,
  "lat": 36.173495,
  "lng": -115.282546,
  "course_name": "Cloud 9 Course at Angel Park Golf Club",
  "driving_miles": ""
},
{
  "distance": 8.158723149341,
  "zip": "89113",
  "closed": 0,
  "lat": 36.097041,
  "lng": -115.254835,
  "course_name": "Canyon/Lakes Course at Spanish Trail Country Club",
  "driving_miles": ""
},
{
  "distance": 8.24978833878,
  "zip": "89117",
  "closed": 0,
  "lat": 36.149148,
  "lng": -115.2854477,
  "course_name": "Canyon Gate Country Club",
  "driving_miles": ""
},
{
  "distance": 8.562392877609,
  "zip": "89014",
  "closed": 0,
  "lat": 36.0564471,
  "lng": -115.0782523,
  "course_name": "WildHorse Golf Club",
  "driving_miles": ""
},
{
  "distance": 8.672355140771,
  "zip": "89145",
  "closed": 0,
  "lat": 36.1662866,
  "lng": -115.2952332,
  "course_name": "Desperado/Outlaw Course at Badlands Golf Club",
  "driving_miles": ""
},
{
  "distance": 8.99781519398,
  "zip": "89134",
  "closed": 0,
  "lat": 36.210864,
  "lng": -115.293005,
  "course_name": "Palm Valley Golf Club - Sun City Summerlin",
  "driving_miles": ""
},
{
  "distance": 9.024960439372,
  "zip": "89134",
  "closed": 0,
  "lat": 36.189695,
  "lng": -115.2997831,
  "course_name": "TPC at Summerlin",
  "driving_miles": ""
},
{
  "distance": 9.035015670326,
  "zip": "89149",
  "closed": 0,
  "lat": 36.261204,
  "lng": -115.255894,
  "course_name": "Painted Desert Golf Club",
  "driving_miles": ""
},
{
  "distance": 9.353350979059,
  "zip": "89144",
  "closed": 0,
  "lat": 36.175673,
  "lng": -115.307367,
  "course_name": "TPC at The Canyons",
  "driving_miles": ""
},
{
  "distance": 9.854908251662,
  "zip": "89074",
  "closed": 0,
  "lat": 36.035213,
  "lng": -115.081914,
  "course_name": "The Legacy Golf Club",
  "driving_miles": ""
},
{
  "distance": 10.402710569283,
  "zip": "89134",
  "closed": 0,
  "lat": 36.2131558,
  "lng": -115.3185248,
  "course_name": "Highland Falls Golf Course at Sun City",
  "driving_miles": ""
},
{
  "distance": 10.426861810786,
  "zip": "89011",
  "closed": 0,
  "lat": 36.1149291,
  "lng": -114.9658279,
  "course_name": "Reflection Bay Golf Club",
  "driving_miles": ""
},
{
  "distance": 11.060323454924,
  "zip": "89134",
  "closed": 0,
  "lat": 36.201078,
  "lng": -115.334364,
  "course_name": "Eagle Crest Golf Course",
  "driving_miles": ""
},
{
  "distance": 11.176949865316,
  "zip": "89135",
  "closed": 0,
  "lat": 36.107859,
  "lng": -115.324785,
  "course_name": "Siena Golf Club",
  "driving_miles": ""
},
{
  "distance": 11.408534170974,
  "zip": "89135",
  "closed": 0,
  "lat": 36.1216996,
  "lng": -115.3353703,
  "course_name": "Bear's Best Las Vegas",
  "driving_miles": ""
},
{
  "distance": 11.522436020533,
  "zip": "89011",
  "closed": 0,
  "lat": 36.078683,
  "lng": -114.96704,
  "course_name": "Tuscany Golf Club",
  "driving_miles": ""
},
{
  "distance": 11.640223916698,
  "zip": "89131",
  "closed": 0,
  "lat": 36.3123044,
  "lng": -115.2514986,
  "course_name": "Desert/Valley Course at SilverStone Golf Club",
  "driving_miles": ""
},
{
  "distance": 11.676621430282,
  "zip": "89135",
  "closed": 0,
  "lat": 36.14868,
  "lng": -115.34747,
  "course_name": "Red Rock Country Club",
  "driving_miles": ""
},
{
  "distance": 11.862175858682,
  "zip": "89012",
  "closed": 0,
  "lat": 36.006026,
  "lng": -115.076691,
  "course_name": "Desert Willow Golf Course",
  "driving_miles": ""
},
{
  "distance": 12.093272660353,
  "zip": "89148",
  "closed": 0,
  "lat": 36.042991,
  "lng": -115.288949,
  "course_name": "Rhodes Ranch Country Club",
  "driving_miles": ""
},
{
  "distance": 12.151635517342,
  "zip": "89012",
  "closed": 0,
  "lat": 36.0108483,
  "lng": -115.047085,
  "course_name": "Dragon Ridge Golf Club",
  "driving_miles": ""
},
{
  "distance": 12.657026641718,
  "zip": "89011",
  "closed": 0,
  "lat": 36.10984,
  "lng": -114.925565,
  "course_name": "Reflection Bay Golf Club",
  "driving_miles": ""
},
{
  "distance": 12.76760295518,
  "zip": "89011",
  "closed": 0,
  "lat": 36.101307,
  "lng": -114.927408,
  "course_name": "SouthShore Golf Club",
  "driving_miles": ""
},
{
  "distance": 12.964088689574,
  "zip": "89011",
  "closed": 0,
  "lat": 36.087535,
  "lng": -114.931144,
  "course_name": "The Falls Golf Club",
  "driving_miles": ""
},
{
  "distance": 13.499102398353,
  "zip": "89052",
  "closed": 0,
  "lat": 35.976041,
  "lng": -115.110308,
  "course_name": "Rio Secco Golf Club",
  "driving_miles": ""
},
{
  "distance": 14.163254923415,
  "zip": "89015",
  "closed": 0,
  "lat": 36.0163439,
  "lng": -114.97186,
  "course_name": "Black Mountain Golf & Country Club",
  "driving_miles": ""
},
{
  "distance": 14.223921874389,
  "zip": "89141",
  "closed": 0,
  "lat": 35.9681039,
  "lng": -115.189885,
  "course_name": "Southern Highlands Golf Club",
  "driving_miles": ""
},
{
  "distance": 14.422374531733,
  "zip": "89052",
  "closed": 0,
  "lat": 35.9664915,
  "lng": -115.0821434,
  "course_name": "Anthem Country Club",
  "driving_miles": ""
},
{
  "distance": 14.875144631798,
  "zip": "89052",
  "closed": 0,
  "lat": 35.9566633,
  "lng": -115.1036178,
  "course_name": "The Revere At Anthem",
  "driving_miles": ""
},
{
  "distance": 15.114071349223,
  "zip": "89052",
  "closed": 0,
  "lat": 35.95346,
  "lng": -115.1010852,
  "course_name": "Concord Course at Revere Golf Club",
  "driving_miles": ""
},
{
  "distance": 16.549967869438,
  "zip": "89124",
  "closed": 0,
  "lat": 36.358215,
  "lng": -115.323455,
  "course_name": "Nu-Wav Kaiv Snow Mountain Course at Las Vegas Paiute Resort",
  "driving_miles": ""
},
{
  "distance": 21.302367635383,
  "zip": "89005",
  "closed": 0,
  "lat": 35.9608279,
  "lng": -114.8595875,
  "course_name": "Coyote Run Course at Boulder Creek Golf Club",
  "driving_miles": ""
},
{
  "distance": 21.666633742042,
  "zip": "89005",
  "closed": 0,
  "lat": 35.9785911,
  "lng": -114.8324851,
  "course_name": "Cascata",
  "driving_miles": ""
},
{
  "distance": 22.062733376622,
  "zip": "89005",
  "closed": 0,
  "lat": 35.9585762,
  "lng": -114.8437664,
  "course_name": "Boulder City Municipal Golf Course",
  "driving_miles": ""
},
{
  "distance": 9.854908251662,
  "zip": "89074",
  "closed": 0,
  "lat": 36.035213,
  "lng": -115.081914,
  "course_name": "The Legacy Golf Club",
  "driving_miles": ""
},
{
  "distance": 10.402710569283,
  "zip": "89134",
  "closed": 0,
  "lat": 36.2131558,
  "lng": -115.3185248,
  "course_name": "Highland Falls Golf Course at Sun City",
  "driving_miles": ""
},
{
  "distance": 10.426861810786,
  "zip": "89011",
  "closed": 0,
  "lat": 36.1149291,
  "lng": -114.9658279,
  "course_name": "Reflection Bay Golf Club",
  "driving_miles": ""
},
{
  "distance": 11.060323454924,
  "zip": "89134",
  "closed": 0,
  "lat": 36.201078,
  "lng": -115.334364,
  "course_name": "Eagle Crest Golf Course",
  "driving_miles": ""
},
{
  "distance": 11.176949865316,
  "zip": "89135",
  "closed": 0,
  "lat": 36.107859,
  "lng": -115.324785,
  "course_name": "Siena Golf Club",
  "driving_miles": ""
},
{
  "distance": 11.408534170974,
  "zip": "89135",
  "closed": 0,
  "lat": 36.1216996,
  "lng": -115.3353703,
  "course_name": "Bear's Best Las Vegas",
  "driving_miles": ""
},
{
  "distance": 11.522436020533,
  "zip": "89011",
  "closed": 0,
  "lat": 36.078683,
  "lng": -114.96704,
  "course_name": "Tuscany Golf Club",
  "driving_miles": ""
},
{
  "distance": 11.640223916698,
  "zip": "89131",
  "closed": 0,
  "lat": 36.3123044,
  "lng": -115.2514986,
  "course_name": "Desert/Valley Course at SilverStone Golf Club",
  "driving_miles": ""
},
{
  "distance": 11.676621430282,
  "zip": "89135",
  "closed": 0,
  "lat": 36.14868,
  "lng": -115.34747,
  "course_name": "Red Rock Country Club",
  "driving_miles": ""
},
{
  "distance": 11.862175858682,
  "zip": "89012",
  "closed": 0,
  "lat": 36.006026,
  "lng": -115.076691,
  "course_name": "Desert Willow Golf Course",
  "driving_miles": ""
},
{
  "distance": 12.093272660353,
  "zip": "89148",
  "closed": 0,
  "lat": 36.042991,
  "lng": -115.288949,
  "course_name": "Rhodes Ranch Country Club",
  "driving_miles": ""
},
{
  "distance": 12.151635517342,
  "zip": "89012",
  "closed": 0,
  "lat": 36.0108483,
  "lng": -115.047085,
  "course_name": "Dragon Ridge Golf Club",
  "driving_miles": ""
},
{
  "distance": 12.657026641718,
  "zip": "89011",
  "closed": 0,
  "lat": 36.10984,
  "lng": -114.925565,
  "course_name": "Reflection Bay Golf Club",
  "driving_miles": ""
},
{
  "distance": 12.76760295518,
  "zip": "89011",
  "closed": 0,
  "lat": 36.101307,
  "lng": -114.927408,
  "course_name": "SouthShore Golf Club",
  "driving_miles": ""
},
{
  "distance": 12.964088689574,
  "zip": "89011",
  "closed": 0,
  "lat": 36.087535,
  "lng": -114.931144,
  "course_name": "The Falls Golf Club",
  "driving_miles": ""
},
{
  "distance": 13.499102398353,
  "zip": "89052",
  "closed": 0,
  "lat": 35.976041,
  "lng": -115.110308,
  "course_name": "Rio Secco Golf Club",
  "driving_miles": ""
},
{
  "distance": 14.163254923415,
  "zip": "89015",
  "closed": 0,
  "lat": 36.0163439,
  "lng": -114.97186,
  "course_name": "Black Mountain Golf & Country Club",
  "driving_miles": ""
},
{
  "distance": 14.223921874389,
  "zip": "89141",
  "closed": 0,
  "lat": 35.9681039,
  "lng": -115.189885,
  "course_name": "Southern Highlands Golf Club",
  "driving_miles": ""
},
{
  "distance": 14.422374531733,
  "zip": "89052",
  "closed": 0,
  "lat": 35.9664915,
  "lng": -115.0821434,
  "course_name": "Anthem Country Club",
  "driving_miles": ""
},
{
  "distance": 14.875144631798,
  "zip": "89052",
  "closed": 0,
  "lat": 35.9566633,
  "lng": -115.1036178,
  "course_name": "The Revere At Anthem",
  "driving_miles": ""
},
{
  "distance": 15.114071349223,
  "zip": "89052",
  "closed": 0,
  "lat": 35.95346,
  "lng": -115.1010852,
  "course_name": "Concord Course at Revere Golf Club",
  "driving_miles": ""
},
{
  "distance": 16.549967869438,
  "zip": "89124",
  "closed": 0,
  "lat": 36.358215,
  "lng": -115.323455,
  "course_name": "Nu-Wav Kaiv Snow Mountain Course at Las Vegas Paiute Resort",
  "driving_miles": ""
},
{
  "distance": 21.302367635383,
  "zip": "89005",
  "closed": 0,
  "lat": 35.9608279,
  "lng": -114.8595875,
  "course_name": "Coyote Run Course at Boulder Creek Golf Club",
  "driving_miles": ""
},
{
  "distance": 21.666633742042,
  "zip": "89005",
  "closed": 0,
  "lat": 35.9785911,
  "lng": -114.8324851,
  "course_name": "Cascata",
  "driving_miles": ""
},
{
  "distance": 22.062733376622,
  "zip": "89005",
  "closed": 0,
  "lat": 35.9585762,
  "lng": -114.8437664,
  "course_name": "Boulder City Municipal Golf Course",
  "driving_miles": ""
},
{
  "distance": 9.854908251662,
  "zip": "89074",
  "closed": 0,
  "lat": 36.035213,
  "lng": -115.081914,
  "course_name": "The Legacy Golf Club",
  "driving_miles": ""
},
{
  "distance": 10.402710569283,
  "zip": "89134",
  "closed": 0,
  "lat": 36.2131558,
  "lng": -115.3185248,
  "course_name": "Highland Falls Golf Course at Sun City",
  "driving_miles": ""
},
{
  "distance": 10.426861810786,
  "zip": "89011",
  "closed": 0,
  "lat": 36.1149291,
  "lng": -114.9658279,
  "course_name": "Reflection Bay Golf Club",
  "driving_miles": ""
},
{
  "distance": 11.060323454924,
  "zip": "89134",
  "closed": 0,
  "lat": 36.201078,
  "lng": -115.334364,
  "course_name": "Eagle Crest Golf Course",
  "driving_miles": ""
},
{
  "distance": 11.176949865316,
  "zip": "89135",
  "closed": 0,
  "lat": 36.107859,
  "lng": -115.324785,
  "course_name": "Siena Golf Club",
  "driving_miles": ""
},
{
  "distance": 11.408534170974,
  "zip": "89135",
  "closed": 0,
  "lat": 36.1216996,
  "lng": -115.3353703,
  "course_name": "Bear's Best Las Vegas",
  "driving_miles": ""
},
{
  "distance": 11.522436020533,
  "zip": "89011",
  "closed": 0,
  "lat": 36.078683,
  "lng": -114.96704,
  "course_name": "Tuscany Golf Club",
  "driving_miles": ""
},
{
  "distance": 11.640223916698,
  "zip": "89131",
  "closed": 0,
  "lat": 36.3123044,
  "lng": -115.2514986,
  "course_name": "Desert/Valley Course at SilverStone Golf Club",
  "driving_miles": ""
},
{
  "distance": 11.676621430282,
  "zip": "89135",
  "closed": 0,
  "lat": 36.14868,
  "lng": -115.34747,
  "course_name": "Red Rock Country Club",
  "driving_miles": ""
},
{
  "distance": 11.862175858682,
  "zip": "89012",
  "closed": 0,
  "lat": 36.006026,
  "lng": -115.076691,
  "course_name": "Desert Willow Golf Course",
  "driving_miles": ""
},
{
  "distance": 12.093272660353,
  "zip": "89148",
  "closed": 0,
  "lat": 36.042991,
  "lng": -115.288949,
  "course_name": "Rhodes Ranch Country Club",
  "driving_miles": ""
},
{
  "distance": 12.151635517342,
  "zip": "89012",
  "closed": 0,
  "lat": 36.0108483,
  "lng": -115.047085,
  "course_name": "Dragon Ridge Golf Club",
  "driving_miles": ""
},
{
  "distance": 12.657026641718,
  "zip": "89011",
  "closed": 0,
  "lat": 36.10984,
  "lng": -114.925565,
  "course_name": "Reflection Bay Golf Club",
  "driving_miles": ""
},
{
  "distance": 12.76760295518,
  "zip": "89011",
  "closed": 0,
  "lat": 36.101307,
  "lng": -114.927408,
  "course_name": "SouthShore Golf Club",
  "driving_miles": ""
},
{
  "distance": 12.964088689574,
  "zip": "89011",
  "closed": 0,
  "lat": 36.087535,
  "lng": -114.931144,
  "course_name": "The Falls Golf Club",
  "driving_miles": ""
},
{
  "distance": 13.499102398353,
  "zip": "89052",
  "closed": 0,
  "lat": 35.976041,
  "lng": -115.110308,
  "course_name": "Rio Secco Golf Club",
  "driving_miles": ""
},
{
  "distance": 14.163254923415,
  "zip": "89015",
  "closed": 0,
  "lat": 36.0163439,
  "lng": -114.97186,
  "course_name": "Black Mountain Golf & Country Club",
  "driving_miles": ""
},
{
  "distance": 14.223921874389,
  "zip": "89141",
  "closed": 0,
  "lat": 35.9681039,
  "lng": -115.189885,
  "course_name": "Southern Highlands Golf Club",
  "driving_miles": ""
},
{
  "distance": 14.422374531733,
  "zip": "89052",
  "closed": 0,
  "lat": 35.9664915,
  "lng": -115.0821434,
  "course_name": "Anthem Country Club",
  "driving_miles": ""
},
{
  "distance": 14.875144631798,
  "zip": "89052",
  "closed": 0,
  "lat": 35.9566633,
  "lng": -115.1036178,
  "course_name": "The Revere At Anthem",
  "driving_miles": ""
},
{
  "distance": 15.114071349223,
  "zip": "89052",
  "closed": 0,
  "lat": 35.95346,
  "lng": -115.1010852,
  "course_name": "Concord Course at Revere Golf Club",
  "driving_miles": ""
},
{
  "distance": 16.549967869438,
  "zip": "89124",
  "closed": 0,
  "lat": 36.358215,
  "lng": -115.323455,
  "course_name": "Nu-Wav Kaiv Snow Mountain Course at Las Vegas Paiute Resort",
  "driving_miles": ""
},
{
  "distance": 21.302367635383,
  "zip": "89005",
  "closed": 0,
  "lat": 35.9608279,
  "lng": -114.8595875,
  "course_name": "Coyote Run Course at Boulder Creek Golf Club",
  "driving_miles": ""
},
{
  "distance": 21.666633742042,
  "zip": "89005",
  "closed": 0,
  "lat": 35.9785911,
  "lng": -114.8324851,
  "course_name": "Cascata",
  "driving_miles": ""
},
{
  "distance": 22.062733376622,
  "zip": "89005",
  "closed": 0,
  "lat": 35.9585762,
  "lng": -114.8437664,
  "course_name": "Boulder City Municipal Golf Course",
  "driving_miles": ""
}
